GLOBALSTAR M063         
1 26081U 00008A   24143.17711610 -.00000006  00000+0  11240-2 0  9999
2 26081  51.9970  61.3361 0004351 291.0552 218.0104 11.86156430111247
GLOBALSTAR M062         
1 26082U 00008B   24142.43502589 -.00000018  00000+0  57529-3 0  9995
2 26082  51.9819 167.7797 0006951 355.5663 147.1479 12.43436294447883
GLOBALSTAR M060         
1 26083U 00008C   24142.19746309 -.00000111  00000+0 -20032-3 0  9993
2 26083  52.0029  73.0273 0003771  46.0431 101.7844 12.17633824104611
GLOBALSTAR M064         
1 26084U 00008D   24143.07828166 -.00000042  00000+0  58432-3 0  9991
2 26084  52.0000 165.0386 0001287  18.5066 341.5814 11.88519426120703
GLOBALSTAR M065         
1 31571U 07020A   24142.73650944 -.00000048  00000+0  31162-3 0  9995
2 31571  51.9909 337.6794 0010443 157.6043 283.0048 12.61971123783982
GLOBALSTAR M069         
1 31573U 07020C   24142.74235885 -.00000069  00000+0  19220-3 0  9995
2 31573  51.9955 293.5222 0000986 121.8546 342.4193 12.62273453785113
GLOBALSTAR M072         
1 31574U 07020D   24142.89149878 -.00000065  00000+0  21888-3 0  9997
2 31574  52.0107  28.9798 0000907  67.6463  14.7623 12.62263422783560
